{"fetched_at":"2026-07-05T12:47:17.871Z","source":"https://celestrak.org/NORAD/elements/gp.php?GROUP=oneweb&FORMAT=JSON","constellation":"oneweb","records":[{"OBJECT_NAME":"ONEWEB-0315","OBJECT_ID":"2021-075AC","EPOCH":"2026-07-04T21:29:33.993312","CLASSIFICATION_TYPE":"U","MEAN_MOTION":13.12442352,"ECCENTRICITY":0.00018032,"INCLINATION":87.8958,"RA_OF_ASC_NODE":347.1231,"ARG_OF_PERICENTER":82.0029,"MEAN_ANOMALY":278.1304,"EPHEMERIS_TYPE":0,"NORAD_CAT_ID":49101,"ELEMENT_SET_NO":999,"REV_AT_EPOCH":23749,"BSTAR":0.0013324915,"MEAN_MOTION_DOT":0.00000492,"MEAN_MOTION_DDOT":0},{"OBJECT_NAME":"ONEWEB-0316","OBJECT_ID":"2021-075AD","EPOCH":"2026-07-04T16:28:14.992896","CLASSIFICATION_TYPE":"U","MEAN_MOTION":13.18686653,"ECCENTRICITY":0.00019139,"INCLINATION":87.9184,"RA_OF_ASC_NODE":331.975,"ARG_OF_PERICENTER":96.9767,"MEAN_ANOMALY":263.1583,"EPHEMERIS_TYPE":0,"NORAD_CAT_ID":49102,"ELEMENT_SET_NO":999,"REV_AT_EPOCH":23951,"BSTAR":0.00033278984,"MEAN_MOTION_DOT":0.00000144,"MEAN_MOTION_DDOT":0},{"OBJECT_NAME":"ONEWEB-0317","OBJECT_ID":"2021-075AE","EPOCH":"2026-07-04T21:34:26.796864","CLASSIFICATION_TYPE":"U","MEAN_MOTION":13.12442438,"ECCENTRICITY":0.0002172,"INCLINATION":87.8963,"RA_OF_ASC_NODE":347.1466,"ARG_OF_PERICENTER":112.2568,"MEAN_ANOMALY":247.8791,"EPHEMERIS_TYPE":0,"NORAD_CAT_ID":49103,"ELEMENT_SET_NO":999,"REV_AT_EPOCH":23751,"BSTAR":0.0013491602,"MEAN_MOTION_DOT":0.00000498,"MEAN_MOTION_DDOT":0},{"OBJECT_NAME":"ONEWEB-0318","OBJECT_ID":"2021-075AF","EPOCH":"2026-07-04T16:23:23.855136","CLASSIFICATION_TYPE":"U","MEAN_MOTION":13.18685737,"ECCENTRICITY":0.00018568,"INCLINATION":87.9187,"RA_OF_ASC_NODE":331.9777,"ARG_OF_PERICENTER":90.5798,"MEAN_ANOMALY":269.5547,"EPHEMERIS_TYPE":0,"NORAD_CAT_ID":49104,"ELEMENT_SET_NO":999,"REV_AT_EPOCH":23947,"BSTAR":0.00019959054,"MEAN_MOTION_DOT":9.2e-7,"MEAN_MOTION_DDOT":0},{"OBJECT_NAME":"ONEWEB-0319","OBJECT_ID":"2021-075AG","EPOCH":"2026-07-04T22:37:08.516352","CLASSIFICATION_TYPE":"U","MEAN_MOTION":13.17650319,"ECCENTRICITY":0.00017609,"INCLINATION":87.9136,"RA_OF_ASC_NODE":2.3351,"ARG_OF_PERICENTER":73.5109,"MEAN_ANOMALY":286.6216,"EPHEMERIS_TYPE":0,"NORAD_CAT_ID":49105,"ELEMENT_SET_NO":999,"REV_AT_EPOCH":23594,"BSTAR":0.00013517028,"MEAN_MOTION_DOT":6.5e-7,"MEAN_MOTION_DDOT":0},{"OBJECT_NAME":"ONEWEB-0323","OBJECT_ID":"2021-075AH","EPOCH":"2026-07-04T21:07:36.430464","CLASSIFICATION_TYPE":"U","MEAN_MOTION":13.12443096,"ECCENTRICITY":0.00019301,"INCLINATION":87.8962,"RA_OF_ASC_NODE":347.1314,"ARG_OF_PERICENTER":77.2359,"MEAN_ANOMALY":282.8986,"EPHEMERIS_TYPE":0,"NORAD_CAT_ID":49106,"ELEMENT_SET_NO":999,"REV_AT_EPOCH":23687,"BSTAR":0.000077878066,"MEAN_MOTION_DOT":4.1e-7,"MEAN_MOTION_DDOT":0},{"OBJECT_NAME":"ONEWEB-0329","OBJECT_ID":"2021-075AJ","EPOCH":"2026-07-04T17:21:15.235200","CLASSIFICATION_TYPE":"U","MEAN_MOTION":13.17650218,"ECCENTRICITY":0.00019899,"INCLINATION":87.9136,"RA_OF_ASC_NODE":2.3796,"ARG_OF_PERICENTER":87.4633,"MEAN_ANOMALY":272.6726,"EPHEMERIS_TYPE":0,"NORAD_CAT_ID":49107,"ELEMENT_SET_NO":999,"REV_AT_EPOCH":23589,"BSTAR":0.000064983552,"MEAN_MOTION_DOT":3.8e-7,"MEAN_MOTION_DDOT":0},{"OBJECT_NAME":"ONEWEB-0330","OBJECT_ID":"2021-075AK","EPOCH":"2026-07-04T17:29:35.320992","CLASSIFICATION_TYPE":"U","MEAN_MOTION":13.19097571,"ECCENTRICITY":0.00020702,"INCLINATION":87.914,"RA_OF_ASC_NODE":2.3913,"ARG_OF_PERICENTER":91.393,"MEAN_ANOMALY":268.7439,"EPHEMERIS_TYPE":0,"NORAD_CAT_ID":49108,"ELEMENT_SET_NO":999,"REV_AT_EPOCH":23593,"BSTAR":-0.027296921,"MEAN_MOTION_DOT":-0.00010802,"MEAN_MOTION_DDOT":0},{"OBJECT_NAME":"ONEWEB-0292","OBJECT_ID":"2021-083A","EPOCH":"2026-07-04T18:18:06.650208","CLASSIFICATION_TYPE":"U","MEAN_MOTION":13.13468901,"ECCENTRICITY":0.00018012,"INCLINATION":87.897,"RA_OF_ASC_NODE":316.739,"ARG_OF_PERICENTER":94.2174,"MEAN_ANOMALY":265.9161,"EPHEMERIS_TYPE":0,"NORAD_CAT_ID":49186,"ELEMENT_SET_NO":999,"REV_AT_EPOCH":23323,"BSTAR":-0.00030836486,"MEAN_MOTION_DOT":-0.000001,"MEAN_MOTION_DDOT":0},{"OBJECT_NAME":"ONEWEB-0303","OBJECT_ID":"2021-083B","EPOCH":"2026-07-04T16:18:31.392000","CLASSIFICATION_TYPE":"U","MEAN_MOTION":13.18687751,"ECCENTRICITY":0.00018401,"INCLINATION":87.9182,"RA_OF_ASC_NODE":331.9768,"ARG_OF_PERICENTER":90.6712,"MEAN_ANOMALY":269.4631,"EPHEMERIS_TYPE":0,"NORAD_CAT_ID":49187,"ELEMENT_SET_NO":999,"REV_AT_EPOCH":23228,"BSTAR":0.00012318556,"MEAN_MOTION_DOT":6.1e-7,"MEAN_MOTION_DDOT":0},{"OBJECT_NAME":"ONEWEB-0306","OBJECT_ID":"2021-083C","EPOCH":"2026-07-04T19:42:28.489248","CLASSIFICATION_TYPE":"U","MEAN_MOTION":13.186852,"ECCENTRICITY":0.00019769,"INCLINATION":87.9189,"RA_OF_ASC_NODE":331.9373,"ARG_OF_PERICENTER":102.2727,"MEAN_ANOMALY":257.8626,"EPHEMERIS_TYPE":0,"NORAD_CAT_ID":49188,"ELEMENT_SET_NO":999,"REV_AT_EPOCH":23234,"BSTAR":-0.00051021159,"MEAN_MOTION_DOT":-0.00000188,"MEAN_MOTION_DDOT":0},{"OBJECT_NAME":"ONEWEB-0307","OBJECT_ID":"2021-083D","EPOCH":"2026-07-04T14:30:11.106144","CLASSIFICATION_TYPE":"U","MEAN_MOTION":13.13470805,"ECCENTRICITY":0.00019124,"INCLINATION":87.8973,"RA_OF_ASC_NODE":316.7683,"ARG_OF_PERICENTER":95.2585,"MEAN_ANOMALY":264.8762,"EPHEMERIS_TYPE":0,"NORAD_CAT_ID":49189,"ELEMENT_SET_NO":999,"REV_AT_EPOCH":23321,"BSTAR":0.00018939494,"MEAN_MOTION_DOT":8.2e-7,"MEAN_MOTION_DDOT":0},{"OBJECT_NAME":"ONEWEB-0320","OBJECT_ID":"2021-083E","EPOCH":"2026-07-04T20:11:37.350528","CLASSIFICATION_TYPE":"U","MEAN_MOTION":13.18686365,"ECCENTRICITY":0.00018832,"INCLINATION":87.9177,"RA_OF_ASC_NODE":331.9493,"ARG_OF_PERICENTER":97.6895,"MEAN_ANOMALY":262.4451,"EPHEMERIS_TYPE":0,"NORAD_CAT_ID":49190,"ELEMENT_SET_NO":999,"REV_AT_EPOCH":23230,"BSTAR":-0.000019203554,"MEAN_MOTION_DOT":5e-8,"MEAN_MOTION_DDOT":0},{"OBJECT_NAME":"ONEWEB-0321","OBJECT_ID":"2021-083F","EPOCH":"2026-07-05T05:32:51.112896","CLASSIFICATION_TYPE":"U","MEAN_MOTION":13.20773475,"ECCENTRICITY":0.00021326,"INCLINATION":87.9192,"RA_OF_ASC_NODE":270.8394,"ARG_OF_PERICENTER":107.1966,"MEAN_ANOMALY":252.9401,"EPHEMERIS_TYPE":0,"NORAD_CAT_ID":49191,"ELEMENT_SET_NO":999,"REV_AT_EPOCH":23921,"BSTAR":0.000049412891,"MEAN_MOTION_DOT":3.3e-7,"MEAN_MOTION_DDOT":0},{"OBJECT_NAME":"ONEWEB-0322","OBJECT_ID":"2021-083G","EPOCH":"2026-07-04T14:24:06.422112","CLASSIFICATION_TYPE":"U","MEAN_MOTION":13.13470134,"ECCENTRICITY":0.00017902,"INCLINATION":87.8971,"RA_OF_ASC_NODE":316.7691,"ARG_OF_PERICENTER":112.6192,"MEAN_ANOMALY":247.5127,"EPHEMERIS_TYPE":0,"NORAD_CAT_ID":49192,"ELEMENT_SET_NO":999,"REV_AT_EPOCH":23320,"BSTAR":0.00062778924,"MEAN_MOTION_DOT":0.00000242,"MEAN_MOTION_DDOT":0},{"OBJECT_NAME":"ONEWEB-0324","OBJECT_ID":"2021-083H","EPOCH":"2026-07-04T15:54:15.901920","CLASSIFICATION_TYPE":"U","MEAN_MOTION":13.18686526,"ECCENTRICITY":0.00020459,"INCLINATION":87.9189,"RA_OF_ASC_NODE":331.9742,"ARG_OF_PERICENTER":96.0769,"MEAN_ANOMALY":264.0596,"EPHEMERIS_TYPE":0,"NORAD_CAT_ID":49193,"ELEMENT_SET_NO":999,"REV_AT_EPOCH":23230,"BSTAR":0.00020443207,"MEAN_MOTION_DOT":9.4e-7,"MEAN_MOTION_DDOT":0},{"OBJECT_NAME":"ONEWEB-0325","OBJECT_ID":"2021-083J","EPOCH":"2026-07-04T15:59:06.952416","CLASSIFICATION_TYPE":"U","MEAN_MOTION":13.1868642,"ECCENTRICITY":0.00017711,"INCLINATION":87.918,"RA_OF_ASC_NODE":331.9803,"ARG_OF_PERICENTER":95.9778,"MEAN_ANOMALY":264.1556,"EPHEMERIS_TYPE":0,"NORAD_CAT_ID":49194,"ELEMENT_SET_NO":999,"REV_AT_EPOCH":23231,"BSTAR":0.000073454625,"MEAN_MOTION_DOT":4.2e-7,"MEAN_MOTION_DDOT":0},{"OBJECT_NAME":"ONEWEB-0326","OBJECT_ID":"2021-083K","EPOCH":"2026-07-04T19:59:42.472608","CLASSIFICATION_TYPE":"U","MEAN_MOTION":13.18685527,"ECCENTRICITY":0.00017755,"INCLINATION":87.9186,"RA_OF_ASC_NODE":331.9462,"ARG_OF_PERICENTER":88.1637,"MEAN_ANOMALY":271.9699,"EPHEMERIS_TYPE":0,"NORAD_CAT_ID":49195,"ELEMENT_SET_NO":999,"REV_AT_EPOCH":23232,"BSTAR":0.000074634463,"MEAN_MOTION_DOT":4.2e-7,"MEAN_MOTION_DDOT":0},{"OBJECT_NAME":"ONEWEB-0327","OBJECT_ID":"2021-083L","EPOCH":"2026-07-04T16:20:46.728960","CLASSIFICATION_TYPE":"U","MEAN_MOTION":13.18685993,"ECCENTRICITY":0.00015763,"INCLINATION":87.9179,"RA_OF_ASC_NODE":331.9793,"ARG_OF_PERICENTER":85.5599,"MEAN_ANOMALY":274.5713,"EPHEMERIS_TYPE":0,"NORAD_CAT_ID":49196,"ELEMENT_SET_NO":999,"REV_AT_EPOCH":23232,"BSTAR":0.000023303356,"MEAN_MOTION_DOT":2.2e-7,"MEAN_MOTION_DDOT":0},{"OBJECT_NAME":"ONEWEB-0328","OBJECT_ID":"2021-083M","EPOCH":"2026-07-04T15:59:10.450752","CLASSIFICATION_TYPE":"U","MEAN_MOTION":13.13469244,"ECCENTRICITY":0.00020145,"INCLINATION":87.898,"RA_OF_ASC_NODE":316.7307,"ARG_OF_PERICENTER":98.1777,"MEAN_ANOMALY":261.9581,"EPHEMERIS_TYPE":0,"NORAD_CAT_ID":49197,"ELEMENT_SET_NO":999,"REV_AT_EPOCH":23319,"BSTAR":0.00080136834,"MEAN_MOTION_DOT":0.00000305,"MEAN_MOTION_DDOT":0},{"OBJECT_NAME":"ONEWEB-0331","OBJECT_ID":"2021-083N","EPOCH":"2026-07-04T19:49:45.508224","CLASSIFICATION_TYPE":"U","MEAN_MOTION":13.18684948,"ECCENTRICITY":0.00018565,"INCLINATION":87.9189,"RA_OF_ASC_NODE":331.9415,"ARG_OF_PERICENTER":85.407,"MEAN_ANOMALY":274.7274,"EPHEMERIS_TYPE":0,"NORAD_CAT_ID":49198,"ELEMENT_SET_NO":999,"REV_AT_EPOCH":23233,"BSTAR":-0.00057343285,"MEAN_MOTION_DOT":-0.00000213,"MEAN_MOTION_DDOT":0},{"OBJECT_NAME":"ONEWEB-0333","OBJECT_ID":"2021-083P","EPOCH":"2026-07-04T19:31:15.075552","CLASSIFICATION_TYPE":"U","MEAN_MOTION":13.13469556,"ECCENTRICITY":0.00018453,"INCLINATION":87.8969,"RA_OF_ASC_NODE":316.726,"ARG_OF_PERICENTER":98.9793,"MEAN_ANOMALY":261.1545,"EPHEMERIS_TYPE":0,"NORAD_CAT_ID":49199,"ELEMENT_SET_NO":999,"REV_AT_EPOCH":23322,"BSTAR":0.0010206433,"MEAN_MOTION_DOT":0.00000385,"MEAN_MOTION_DDOT":0},{"OBJECT_NAME":"ONEWEB-0334","OBJECT_ID":"2021-083Q","EPOCH":"2026-07-04T15:20:43.542240","CLASSIFICATION_TYPE":"U","MEAN_MOTION":13.20774357,"ECCENTRICITY":0.00020574,"INCLINATION":87.919,"RA_OF_ASC_NODE":270.9674,"ARG_OF_PERICENTER":122.9052,"MEAN_ANOMALY":237.228,"EPHEMERIS_TYPE":0,"NORAD_CAT_ID":49200,"ELEMENT_SET_NO":999,"REV_AT_EPOCH":23909,"BSTAR":0.00010401537,"MEAN_MOTION_DOT":5.5e-7,"MEAN_MOTION_DDOT":0}]}
